GPS BIIR-2  (PRN 13)    
1 24876U 97035A   22272.56581416  .00000037  00000+0  00000+0 0  9990
2 24876  55.5215 151.6120 0063133  52.5783 308.0899  2.00563171184740
GPS BIIR-4  (PRN 20)    
1 26360U 00025A   22272.45640287  .00000003  00000+0  00000+0 0  9996
2 26360  54.1456  74.5733 0047989 185.9884 186.4204  2.00564926164069
GPS BIIR-6  (PRN 22)    
1 26605U 00071A   22271.78203804  .00000044  00000+0  00000+0 0  9999
2 26605  55.1067 148.5908 0136680 254.5711 116.1600  2.00555362160290
GPS BIIR-8  (PRN 16)    
1 27663U 03005A   22272.04422660  .00000034  00000+0  00000+0 0  9996
2 27663  55.4469 268.9447 0126505  41.1601  10.8408  2.00558424144090
GPS BIIR-9  (PRN 21)    
1 27704U 03010A   22272.24885639 -.00000072  00000+0  00000+0 0  9992
2 27704  55.0582  19.1100 0245241 308.5739 106.6051  2.00560742142891
GPS BIIR-11 (PRN 19)    
1 28190U 04009A   22272.29806188 -.00000049  00000+0  00000+0 0  9992
2 28190  55.9378 329.9442 0089334 126.0313 263.7957  2.00558067135736
GPS BIIR-13 (PRN 02)    
1 28474U 04045A   22272.54808378 -.00000071  00000+0  00000+0 0  9993
2 28474  55.3840  19.2773 0202652 279.9985 162.7386  2.00421396131226
GPS BIIRM-1 (PRN 17)    
1 28874U 05038A   22272.38804119 -.00000045  00000+0  00000+0 0  9992
2 28874  55.9998 327.3792 0140030 275.2902 206.7017  2.00569417124626
GPS BIIRM-2 (PRN 31)    
1 29486U 06042A   22272.48033185  .00000034  00000+0  00000+0 0  9993
2 29486  54.7060 205.1406 0104769  23.7497  78.1465  2.00573034117183
GPS BIIRM-3 (PRN 12)    
1 29601U 06052A   22272.28438856  .00000036  00000+0  00000+0 0  9997
2 29601  55.4567 267.8776 0082758  75.0205 285.8972  2.00556551116192
GPS BIIRM-4 (PRN 15)    
1 32260U 07047A   22272.59093658  .00000038  00000+0  00000+0 0  9990
2 32260  53.3404 136.2272 0143960  64.9000 296.6861  2.00569087109600
GPS BIIRM-5 (PRN 29)    
1 32384U 07062A   22272.41430650 -.00000046  00000+0  00000+0 0  9992
2 32384  56.1219 328.1530 0020661 146.2517 214.1765  2.00567732108309
GPS BIIRM-6 (PRN 07)    
1 32711U 08012A   22272.00857671  .00000034  00000+0  00000+0 0  9999
2 32711  54.4674 204.0706 0165985 232.0741 126.4252  2.00567870106530
GPS BIIRM-8 (PRN 05)    
1 35752U 09043A   22272.47412709  .00000015  00000+0  00000+0 0  9991
2 35752  55.1538  81.3427 0058842  62.9973 284.0550  2.00549809 96140
GPS BIIF-1  (PRN 25)    
1 36585U 10022A   22272.58338078  .00000039  00000+0  00000+0 0  9999
2 36585  54.7433 263.3124 0103762  56.7453 132.0951  2.00570570 90382
GPS BIIF-2  (PRN 01)    
1 37753U 11036A   22272.20603358 -.00000065  00000+0  00000+0 0  9998
2 37753  56.6494  24.6706 0118310  53.4805 306.1328  2.00565885 82052
GPS BIIF-3  (PRN 24)    
1 38833U 12053A   22272.19082020  .00000032  00000+0  00000+0 0  9996
2 38833  53.5235 199.1046 0129310  47.5782 313.5260  2.00563012 72221
GPS BIIF-4  (PRN 27)    
1 39166U 13023A   22272.54766886 -.00000041  00000+0  00000+0 0  9993
2 39166  55.6233 323.7045 0104506  38.3581 322.4488  2.00565307 68675
GPS BIIF-5  (PRN 30)    
1 39533U 14008A   22272.05151516  .00000033  00000+0  00000+0 0  9999
2 39533  53.6160 204.6275 0060571 209.7398 149.9238  2.00559216 62463
GPS BIIF-6  (PRN 06)    
1 39741U 14026A   22272.33488288 -.00000066  00000+0  00000+0 0  9997
2 39741  56.6094  24.1915 0026418 305.2730  54.4963  2.00581041 61323
GPS BIIF-7  (PRN 09)    
1 40105U 14045A   22271.91862690  .00000044  00000+0  00000+0 0  9995
2 40105  54.7119 142.6731 0023163 111.2167 249.1313  2.00554267 58857
GPS BIIF-8  (PRN 03)    
1 40294U 14068A   22271.78643544  .00000021  00000+0  00000+0 0  9994
2 40294  55.8967  83.8554 0043074  59.3700 301.0885  2.00578640 57982
GPS BIIF-9  (PRN 26)    
1 40534U 15013A   22271.93325198  .00000034  00000+0  00000+0 0  9995
2 40534  53.6441 260.4060 0071141  19.8578 340.4083  2.00575726 54602
GPS BIIF-10 (PRN 08)    
1 40730U 15033A   22272.58863169 -.00000040  00000+0  00000+0 0  9990
2 40730  55.1192 322.4818 0075151   7.5357 352.6441  2.00572737 52783
GPS BIIF-11 (PRN 10)    
1 41019U 15062A   22272.13937775  .00000020  00000+0  00000+0 0  9996
2 41019  55.8845  83.6866 0081075 217.3648 142.1021  2.00562504 50618
GPS BIIF-12 (PRN 32)    
1 41328U 16007A   22272.22736723  .00000042  00000+0  00000+0 0  9993
2 41328  54.9266 143.3573 0062762 229.8509 129.6958  2.00565916 48620
GPS BIII-1  (PRN 04)    
1 43873U 18109A   22272.10764047  .00000042  00000+0  00000+0 0  9992
2 43873  55.1056 145.8036 0020600 188.5642 337.7915  2.00554588 27852
GPS BIII-2  (PRN 18)    
1 44506U 19056A   22272.74817512 -.00000066  00000+0  00000+0 0  9991
2 44506  55.7240  24.9072 0028657 181.2446 347.6771  2.00558230 22859
GPS BIII-3  (PRN 23)    
1 45854U 20041A   22272.59378258  .00000017  00000+0  00000+0 0  9991
2 45854  55.6038  82.1795 0026903 178.0108 176.9243  2.00569374 16827
GPS BIII-4  (PRN 14)    
1 46826U 20078A   22272.38594087  .00000036  00000+0  00000+0 0  9999
2 46826  54.5045 265.8758 0023462 191.9645 349.9057  2.00565009 14294
GPS BIII-5  (PRN 11)    
1 48859U 21054A   22272.37948382 -.00000065  00000+0  00000+0 0  9995
2 48859  55.2323  26.8705 0007914 199.2101 163.0490  2.00567262  9549
